start=new Date('2022-02-12T00:00:00.000Z').valueOf();
sats=[{"PERIOD":"95.591","DECAY_DATE":null,"RA_OF_ASC_NODE":"166.7938","GP_ID":"195759423","ELEMENT_SET_NO":"999","MEAN_ELEMENT_THEORY":"SGP4","BSTAR":"0.00012477000000","COUNTRY_CODE":"US","REV_AT_EPOCH":"4998","CENTER_NAME":"EARTH","SEMIMAJOR_AXIS":"6925.290","ARG_OF_PERICENTER":"65.3712","TIME_SYSTEM":"UTC","INCLINATION":"53.0541","MEAN_MOTION_DDOT":"0.0000000000000","SITE":"AFETR","MEAN_MOTION_DOT":"0.00001578","TLE_LINE2":"2 48034  53.0541 166.7938 0001511  65.3712 294.7434 15.06419101 49982","APOAPSIS":"548.201","FILE":"3297876","OBJECT_ID":"2021-024BK","OBJECT_TYPE":"PAYLOAD","MEAN_MOTION":"15.06419101","REF_FRAME":"TEME","PERIAPSIS":"546.109","OBJECT_NAME":"STARLINK-2288","ECCENTRICITY":"0.00015110","MEAN_ANOMALY":"294.7434","EPOCH":"2022-02-11T17:47:25.547424","TLE_LINE1":"1 48034U 21024BK  22042.74126791  .00001578  00000-0  12477-3 0  9990","LAUNCH_DATE":"2021-03-24","CLASSIFICATION_TYPE":"U","NORAD_CAT_ID":"48034","RCS_SIZE":"LARGE","EPHEMERIS_TYPE":"0"},{"GP_ID":"195753638","ELEMENT_SET_NO":"999","MEAN_ELEMENT_THEORY":"SGP4","DECAY_DATE":null,"PERIOD":"95.591","RA_OF_ASC_NODE":"167.6532","COUNTRY_CODE":"US","REV_AT_EPOCH":"5048","BSTAR":"0.00051505000000","ARG_OF_PERICENTER":"70.8880","TIME_SYSTEM":"UTC","CENTER_NAME":"EARTH","SEMIMAJOR_AXIS":"6925.279","SITE":"AFETR","MEAN_MOTION_DOT":"0.00007403","TLE_LINE2":"2 48036  53.0533 167.6532 0001406  70.8880 289.2261 15.06422747 50489","INCLINATION":"53.0533","MEAN_MOTION_DDOT":"0.0000000000000","FILE":"3297735","OBJECT_TYPE":"PAYLOAD","OBJECT_ID":"2021-024BM","APOAPSIS":"548.118","REF_FRAME":"TEME","MEAN_MOTION":"15.06422747","ECCENTRICITY":"0.00014060","PERIAPSIS":"546.170","OBJECT_NAME":"STARLINK-2295","MEAN_ANOMALY":"289.2261","EPOCH":"2022-02-11T13:11:25.477152","CLASSIFICATION_TYPE":"U","NORAD_CAT_ID":"48036","RCS_SIZE":"LARGE","EPHEMERIS_TYPE":"0","TLE_LINE1":"1 48036U 21024BM  22042.54960043  .00007403  00000-0  51505-3 0  9994","LAUNCH_DATE":"2021-03-24"},{"TLE_LINE1":"1 48092U 21027A   22042.52793139  .00003804  00000-0  27402-3 0  9997","LAUNCH_DATE":"2021-04-07","CLASSIFICATION_TYPE":"U","NORAD_CAT_ID":"48092","RCS_SIZE":"LARGE","EPHEMERIS_TYPE":"0","ECCENTRICITY":"0.00014550","PERIAPSIS":"546.146","OBJECT_NAME":"STARLINK-2048","EPOCH":"2022-02-11T12:40:13.272096","MEAN_ANOMALY":"270.7855","MEAN_MOTION":"15.06419471","REF_FRAME":"TEME","APOAPSIS":"548.162","FILE":"3297735","OBJECT_ID":"2021-027A","OBJECT_TYPE":"PAYLOAD","INCLINATION":"53.0562","MEAN_MOTION_DDOT":"0.0000000000000","SITE":"AFETR","MEAN_MOTION_DOT":"0.00003804","TLE_LINE2":"2 48092  53.0562 292.7432 0001455  89.3301 270.7855 15.06419471 49313","CENTER_NAME":"EARTH","SEMIMAJOR_AXIS":"6925.289","ARG_OF_PERICENTER":"89.3301","TIME_SYSTEM":"UTC","BSTAR":"0.00027402000000","COUNTRY_CODE":"US","REV_AT_EPOCH":"4931","PERIOD":"95.591","DECAY_DATE":null,"RA_OF_ASC_NODE":"292.7432","GP_ID":"195752643","ELEMENT_SET_NO":"999","MEAN_ELEMENT_THEORY":"SGP4"},{"SEMIMAJOR_AXIS":"6925.306","CENTER_NAME":"EARTH","ARG_OF_PERICENTER":"71.3290","TIME_SYSTEM":"UTC","MEAN_MOTION_DDOT":"0.0000000000000","INCLINATION":"53.0560","TLE_LINE2":"2 48093  53.0560 357.5941 0001374  71.3290 288.7848 15.06414025 48012","SITE":"AFETR","MEAN_MOTION_DOT":"0.00001891","DECAY_DATE":null,"PERIOD":"95.591","RA_OF_ASC_NODE":"357.5941","MEAN_ELEMENT_THEORY":"SGP4","GP_ID":"195759794","ELEMENT_SET_NO":"999","BSTAR":"0.00014573000000","COUNTRY_CODE":"US","REV_AT_EPOCH":"4801","ECCENTRICITY":"0.00013740","PERIAPSIS":"546.219","OBJECT_NAME":"STARLINK-2404","MEAN_ANOMALY":"288.7848","EPOCH":"2022-02-11T13:32:37.197024","LAUNCH_DATE":"2021-04-07","TLE_LINE1":"1 48093U 21027B   22042.56431941  .00001891  00000-0  14573-3 0  9991","RCS_SIZE":"LARGE","EPHEMERIS_TYPE":"0","CLASSIFICATION_TYPE":"U","NORAD_CAT_ID":"48093","APOAPSIS":"548.122","FILE":"3297893","OBJECT_ID":"2021-027B","OBJECT_TYPE":"PAYLOAD","MEAN_MOTION":"15.06414025","REF_FRAME":"TEME"},{"SITE":"AFETR","MEAN_MOTION_DOT":"0.00001962","TLE_LINE2":"2 48094  53.0564   7.4224 0001510  70.1542 289.9609 15.06413415 47885","INCLINATION":"53.0564","MEAN_MOTION_DDOT":"0.0000000000000","ARG_OF_PERICENTER":"70.1542","TIME_SYSTEM":"UTC","CENTER_NAME":"EARTH","SEMIMAJOR_AXIS":"6925.307","REV_AT_EPOCH":"4788","COUNTRY_CODE":"US","BSTAR":"0.00015055000000","GP_ID":"195759804","ELEMENT_SET_NO":"999","MEAN_ELEMENT_THEORY":"SGP4","PERIOD":"95.591","DECAY_DATE":null,"RA_OF_ASC_NODE":"7.4224","CLASSIFICATION_TYPE":"U","NORAD_CAT_ID":"48094","RCS_SIZE":"LARGE","EPHEMERIS_TYPE":"0","TLE_LINE1":"1 48094U 21027C   22042.60120095  .00001962  00000-0  15055-3 0  9997","LAUNCH_DATE":"2021-04-07","PERIAPSIS":"546.127","ECCENTRICITY":"0.00015100","OBJECT_NAME":"STARLINK-2412","MEAN_ANOMALY":"289.9609","EPOCH":"2022-02-11T14:25:43.762080","REF_FRAME":"TEME","MEAN_MOTION":"15.06413415","FILE":"3297903","OBJECT_TYPE":"PAYLOAD","OBJECT_ID":"2021-027C","APOAPSIS":"548.218"},{"FILE":"3297735","OBJECT_ID":"2021-027D","OBJECT_TYPE":"PAYLOAD","APOAPSIS":"548.246","REF_FRAME":"TEME","MEAN_MOTION":"15.06421848","OBJECT_NAME":"STARLINK-2414","PERIAPSIS":"546.047","ECCENTRICITY":"0.00015880","EPOCH":"2022-02-11T08:14:12.056640","MEAN_ANOMALY":"288.4172","CLASSIFICATION_TYPE":"U","NORAD_CAT_ID":"48095","EPHEMERIS_TYPE":"0","RCS_SIZE":"LARGE","TLE_LINE1":"1 48095U 21027D   22042.34319510  .00006275  00000-0  43950-3 0  9998","LAUNCH_DATE":"2021-04-07","GP_ID":"195753395","ELEMENT_SET_NO":"999","MEAN_ELEMENT_THEORY":"SGP4","DECAY_DATE":null,"PERIOD":"95.591","RA_OF_ASC_NODE":"8.5890","COUNTRY_CODE":"US","REV_AT_EPOCH":"4825","BSTAR":"0.00043950000000","ARG_OF_PERICENTER":"71.6990","TIME_SYSTEM":"UTC","SEMIMAJOR_AXIS":"6925.282","CENTER_NAME":"EARTH","SITE":"AFETR","MEAN_MOTION_DOT":"0.00006275","TLE_LINE2":"2 48095  53.0537   8.5890 0001588  71.6990 288.4172 15.06421848 48255","INCLINATION":"53.0537","MEAN_MOTION_DDOT":"0.0000000000000"},{"TIME_SYSTEM":"UTC","ARG_OF_PERICENTER":"65.2668","CENTER_NAME":"EARTH","SEMIMAJOR_AXIS":"6925.293","MEAN_MOTION_DOT":"0.00007629","SITE":"AFETR","TLE_LINE2":"2 48096  53.0538   8.4082 0001773  65.2668 294.8505 15.06418091 48242","INCLINATION":"53.0538","MEAN_MOTION_DDOT":"0.0000000000000","ELEMENT_SET_NO":"999","GP_ID":"195752143","MEAN_ELEMENT_THEORY":"SGP4","RA_OF_ASC_NODE":"8.4082","PERIOD":"95.591","DECAY_DATE":null,"COUNTRY_CODE":"US","REV_AT_EPOCH":"4824","BSTAR":"0.00053025000000","MEAN_ANOMALY":"294.8505","EPOCH":"2022-02-11T09:12:35.244000","PERIAPSIS":"545.930","OBJECT_NAME":"STARLINK-2417","ECCENTRICITY":"0.00017730","NORAD_CAT_ID":"48096","CLASSIFICATION_TYPE":"U","RCS_SIZE":"LARGE","EPHEMERIS_TYPE":"0","LAUNCH_DATE":"2021-04-07","TLE_LINE1":"1 48096U 21027E   22042.38374125  .00007629  00000-0  53025-3 0  9994","OBJECT_TYPE":"PAYLOAD","OBJECT_ID":"2021-027E","FILE":"3297735","APOAPSIS":"548.386","REF_FRAME":"TEME","MEAN_MOTION":"15.06418091"},{"BSTAR":"0.00018296000000","COUNTRY_CODE":"US","REV_AT_EPOCH":"4819","DECAY_DATE":null,"PERIOD":"95.592","RA_OF_ASC_NODE":"346.4058","GP_ID":"195759330","ELEMENT_SET_NO":"999","MEAN_ELEMENT_THEORY":"SGP4","INCLINATION":"53.0572","MEAN_MOTION_DDOT":"0.0000000000000","SITE":"AFETR","MEAN_MOTION_DOT":"0.00002445","TLE_LINE2":"2 48097  53.0572 346.4058 0001370  88.8225 271.2921 15.06408820 48196","SEMIMAJOR_AXIS":"6925.322","CENTER_NAME":"EARTH","ARG_OF_PERICENTER":"88.8225","TIME_SYSTEM":"UTC","MEAN_MOTION":"15.06408820","REF_FRAME":"TEME","APOAPSIS":"548.135","FILE":"3297870","OBJECT_ID":"2021-027F","OBJECT_TYPE":"PAYLOAD","TLE_LINE1":"1 48097U 21027F   22042.82789382  .00002445  00000-0  18296-3 0  9991","LAUNCH_DATE":"2021-04-07","CLASSIFICATION_TYPE":"U","NORAD_CAT_ID":"48097","EPHEMERIS_TYPE":"0","RCS_SIZE":"LARGE","PERIAPSIS":"546.238","OBJECT_NAME":"STARLINK-2418","ECCENTRICITY":"0.00013700","MEAN_ANOMALY":"271.2921","EPOCH":"2022-02-11T19:52:10.026048"},{"CENTER_NAME":"EARTH","SEMIMAJOR_AXIS":"6925.336","ARG_OF_PERICENTER":"77.3136","TIME_SYSTEM":"UTC","INCLINATION":"53.0543","MEAN_MOTION_DDOT":"0.0000000000000","SITE":"AFETR","MEAN_MOTION_DOT":"0.00001288","TLE_LINE2":"2 48098  53.0543 358.8984 0001237  77.3136 282.7991 15.06404026 48363","PERIOD":"95.592","DECAY_DATE":null,"RA_OF_ASC_NODE":"358.8984","GP_ID":"195753645","ELEMENT_SET_NO":"999","MEAN_ELEMENT_THEORY":"SGP4","BSTAR":"0.00010535000000","REV_AT_EPOCH":"4836","COUNTRY_CODE":"US","PERIAPSIS":"546.345","ECCENTRICITY":"0.00012370","OBJECT_NAME":"STARLINK-2421","MEAN_ANOMALY":"282.7991","EPOCH":"2022-02-11T06:34:40.734912","LAUNCH_DATE":"2021-04-07","TLE_LINE1":"1 48098U 21027G   22042.27408258  .00001288  00000-0  10535-3 0  9993","CLASSIFICATION_TYPE":"U","NORAD_CAT_ID":"48098","RCS_SIZE":"LARGE","EPHEMERIS_TYPE":"0","APOAPSIS":"548.058","FILE":"3297735","OBJECT_ID":"2021-027G","OBJECT_TYPE":"PAYLOAD","MEAN_MOTION":"15.06404026","REF_FRAME":"TEME"},{"BSTAR":"0.00059083000000","REV_AT_EPOCH":"4823","COUNTRY_CODE":"US","RA_OF_ASC_NODE":"8.6410","DECAY_DATE":null,"PERIOD":"95.591","ELEMENT_SET_NO":"999","GP_ID":"195753896","MEAN_ELEMENT_THEORY":"SGP4","INCLINATION":"53.0562","MEAN_MOTION_DDOT":"0.0000000000000","MEAN_MOTION_DOT":"0.00008536","SITE":"AFETR","TLE_LINE2":"2 48099  53.0562   8.6410 0001545  67.0252 293.0900 15.06425689 48235","CENTER_NAME":"EARTH","SEMIMAJOR_AXIS":"6925.270","TIME_SYSTEM":"UTC","ARG_OF_PERICENTER":"67.0252","MEAN_MOTION":"15.06425689","REF_FRAME":"TEME","APOAPSIS":"548.205","OBJECT_ID":"2021-027H","OBJECT_TYPE":"PAYLOAD","FILE":"3297735","LAUNCH_DATE":"2021-04-07","TLE_LINE1":"1 48099U 21027H   22042.32845066  .00008536  00000-0  59083-3 0  9996","NORAD_CAT_ID":"48099","CLASSIFICATION_TYPE":"U","RCS_SIZE":"LARGE","EPHEMERIS_TYPE":"0","MEAN_ANOMALY":"293.0900","EPOCH":"2022-02-11T07:52:58.137024","OBJECT_NAME":"STARLINK-2428","PERIAPSIS":"546.065","ECCENTRICITY":"0.00015450"}];
